NORAD_CAT_ID,OBJECT_NAME,OBJECT_TYPE,EPOCH,MEAN_MOTION,ECCENTRICITY,INCLINATION,RA_OF_ASC_NODE,ARG_OF_PERICENTER,MEAN_ANOMALY,BSTAR,MEAN_MOTION_DOT,MEAN_MOTION_DDOT,TLE_LINE0,TLE_LINE1,TLE_LINE2,SEMIMAJOR_AXIS,PERIOD,APOGEE,PERIGEE,DECAYED
53716.0,STARLINK-4699,PAYLOAD,2023-12-08 03:45:59,15.08829835,0.0001813,53.2193,346.2949,95.8171,264.3028,0.00037735,5.721e-05,0.0,0 STARLINK-4699,1 53716U 22107S   23342.15694348  .00005721  00000-0  37735-3 0  9991,2 53716  53.2193 346.2949 0001813  95.8171 264.3028 15.08829835 69782,6917.911,95.438,541.031,538.522,0.0
53716.0,STARLINK-4699,PAYLOAD,2023-12-08 06:56:46,15.08828639,0.0001817,53.2193,345.6995,93.1848,266.9352,0.00037998,5.763e-05,0.0,0 STARLINK-4699,1 53716U 22107S   23342.28942471  .00005763  00000-0  37998-3 0  9995,2 53716  53.2193 345.6995 0001817  93.1848 266.9352 15.08828639 70255,6917.915,95.438,541.037,538.523,0.0
53716.0,STARLINK-4699,PAYLOAD,2023-12-09 09:58:18,15.08850367,0.0001797,53.2188,340.6421,105.8799,254.2391,-2.3516e-05,-6.62e-06,0.0,0 STARLINK-4699,1 53716U 22107S   23343.41549747 -.00000662  00000-0 -23516-4 0  9997,2 53716  53.2188 340.6421 0001797 105.8799 254.2391 15.08850367 69974,6917.849,95.437,540.957,538.471,0.0
53716.0,STARLINK-4699,PAYLOAD,2023-12-10 00:16:47,15.08836815,0.0001898,53.219,337.9619,108.3139,251.8059,-4.0802e-05,-9.37e-06,0.0,0 STARLINK-4699,1 53716U 22107S   23344.01166417 -.00000937  00000-0 -40802-4 0  9995,2 53716  53.2190 337.9619 0001898 108.3139 251.8059 15.08836815 70061,6917.89,95.438,541.068,538.442,0.0
53716.0,STARLINK-4699,PAYLOAD,2023-12-11 04:53:44,15.08833712,0.0001941,53.219,332.6092,114.0674,246.0521,9.8303e-06,-1.32e-06,0.0,0 STARLINK-4699,1 53716U 22107S   23345.20398635 -.00000132  00000-0  98303-5 0  9992,2 53716  53.2190 332.6092 0001941 114.0674 246.0521 15.08833712 70248,6917.9,95.438,541.107,538.422,0.0
53716.0,STARLINK-4699,PAYLOAD,2023-12-12 06:19:54,15.08837931,0.0001493,53.2179,327.8546,88.718,271.3983,8.5109e-05,1.067e-05,0.0,0 STARLINK-4699,1 53716U 22107S   23346.26382677  .00001067  00000-0  85109-4 0  9994,2 53716  53.2179 327.8546 0001493  88.7180 271.3983 15.08837931 70404,6917.887,95.438,540.785,538.719,0.0
53716.0,STARLINK-4699,PAYLOAD,2023-12-13 06:10:41,15.08843069,0.000155,53.2183,323.3953,83.301,276.8158,9.4632e-05,1.219e-05,0.0,0 STARLINK-4699,1 53716U 22107S   23347.25742472  .00001219  00000-0  94632-4 0  9997,2 53716  53.2183 323.3953 0001550  83.3010 276.8158 15.08843069 71009,6917.871,95.437,540.808,538.664,0.0
53716.0,STARLINK-4699,PAYLOAD,2023-12-14 04:26:05,15.08843512,0.0001974,53.2194,319.2325,67.4282,292.6919,5.3236e-05,5.59e-06,0.0,0 STARLINK-4699,1 53716U 22107S   23348.18478683  .00000559  00000-0  53236-4 0  9991,2 53716  53.2194 319.2325 0001974  67.4282 292.6919 15.08843512 70690,6917.87,95.437,541.1,538.369,0.0
53716.0,STARLINK-4699,PAYLOAD,2023-12-14 06:01:28,15.08846132,0.0002055,53.2196,318.9328,65.995,294.1257,7.5271e-05,9.1e-06,0.0,0 STARLINK-4699,1 53716U 22107S   23348.25102464  .00000910  00000-0  75271-4 0  9994,2 53716  53.2196 318.9328 0002055  65.9950 294.1257 15.08846132 71152,6917.862,95.437,541.148,538.305,0.0
53716.0,STARLINK-4699,PAYLOAD,2023-12-15 04:16:52,15.08835963,0.0002217,53.2208,314.7681,63.3912,296.7307,0.00022863,3.352e-05,0.0,0 STARLINK-4699,1 53716U 22107S   23349.17838186  .00003352  00000-0  22863-3 0  9994,2 53716  53.2208 314.7681 0002217  63.3912 296.7307 15.08835963 71291,6917.893,95.438,541.291,538.224,0.0
53716.0,STARLINK-4699,PAYLOAD,2023-12-16 04:07:39,15.08836681,0.0001498,53.2183,310.3192,102.3113,257.8047,-6.6419e-05,-1.345e-05,0.0,0 STARLINK-4699,1 53716U 22107S   23350.17199059 -.00001345  00000-0 -66419-4 0  9993,2 53716  53.2183 310.3192 0001498 102.3113 257.8047 15.08836681 70992,6917.891,95.438,540.792,538.719,0.0
53716.0,STARLINK-4699,PAYLOAD,2023-12-17 03:58:26,15.08844255,0.0001519,53.2187,305.8521,104.508,255.6081,-7.8383e-06,-4.13e-06,0.0,0 STARLINK-4699,1 53716U 22107S   23351.16558516 -.00000413  00000-0 -78383-5 0  9999,2 53716  53.2187 305.8521 0001519 104.5080 255.6081 15.08844255 71140,6917.867,95.437,540.783,538.682,0.0
53716.0,STARLINK-4699,PAYLOAD,2023-12-18 02:13:49,15.08847648,0.0001568,53.2192,301.6922,103.1777,256.939,0.00021098,3.072e-05,0.0,0 STARLINK-4699,1 53716U 22107S   23352.09293829  .00003072  00000-0  21098-3 0  9996,2 53716  53.2192 301.6922 0001568 103.1777 256.9390 15.08847648 71288,6917.857,95.437,540.807,538.637,0.0
53716.0,STARLINK-4699,PAYLOAD,2023-12-19 03:40:01,15.08831545,0.0001245,53.218,296.9305,85.8306,274.2828,-6.0259e-05,-1.247e-05,0.0,0 STARLINK-4699,1 53716U 22107S   23353.15280051 -.00001247  00000-0 -60259-4 0  9994,2 53716  53.2180 296.9305 0001245  85.8306 274.2828 15.08831545 71448,6917.906,95.438,540.633,538.91,0.0
53716.0,STARLINK-4699,PAYLOAD,2023-12-20 03:30:47,15.08856509,0.0001336,53.2181,292.4701,86.1195,273.995,1.9068e-05,1.6e-07,0.0,0 STARLINK-4699,1 53716U 22107S   23354.14638382  .00000016  00000-0  19068-4 0  9991,2 53716  53.2181 292.4701 0001336  86.1195 273.9950 15.08856509 71596,6917.83,95.437,540.619,538.771,0.0
53716.0,STARLINK-4699,PAYLOAD,2023-12-21 03:21:33,15.08859085,0.0001269,53.2182,288.0127,103.4215,256.6918,0.00033423,5.038e-05,0.0,0 STARLINK-4699,1 53716U 22107S   23355.13997656  .00005038  00000-0  33423-3 0  9992,2 53716  53.2182 288.0127 0001269 103.4215 256.6918 15.08859085 72192,6917.822,95.436,540.565,538.809,0.0
53716.0,STARLINK-4699,PAYLOAD,2023-12-22 03:12:22,15.08849933,0.0001566,53.2178,283.555,67.1568,292.9589,5.527e-05,5.92e-06,0.0,0 STARLINK-4699,1 53716U 22107S   23356.13359157  .00000592  00000-0  55270-4 0  9996,2 53716  53.2178 283.5550 0001566  67.1568 292.9589 15.08849933 71898,6917.85,95.437,540.798,538.632,0.0
53716.0,STARLINK-4699,PAYLOAD,2023-12-23 01:27:46,15.08849844,0.00015,53.2181,279.3893,91.0423,269.0741,-0.00010175,-1.907e-05,0.0,0 STARLINK-4699,1 53716U 22107S   23357.06095136 -.00001907  00000-0 -10175-3 0  9990,2 53716  53.2181 279.3893 0001500  91.0423 269.0741 15.08849844 72032,6917.85,95.437,540.753,538.678,0.0
53716.0,STARLINK-4699,PAYLOAD,2023-12-23 04:38:32,15.08852909,0.000164,53.2194,278.7831,79.911,280.2068,-6.5714e-05,-1.334e-05,0.0,0 STARLINK-4699,1 53716U 22107S   23357.19342794 -.00001334  00000-0 -65714-4 0  9993,2 53716  53.2194 278.7831 0001640  79.9110 280.2068 15.08852909 72509,6917.841,95.437,540.84,538.571,0.0
53716.0,STARLINK-4699,PAYLOAD,2023-12-23 18:57:01,15.08829487,0.0001337,53.2183,276.1184,71.2343,288.8795,8.4099e-08,-2.87e-06,0.0,0 STARLINK-4699,1 53716U 22107S   23357.78960533 -.00000287  00000-0  84099-7 0  9990,2 53716  53.2183 276.1184 0001337  71.2343 288.8795 15.08829487 72142,6917.913,95.438,540.702,538.853,0.0
53716.0,STARLINK-4699,PAYLOAD,2023-12-23 22:07:48,15.08832329,0.0001491,53.2179,275.5275,78.4675,281.6485,1.8627e-05,8e-08,0.0,0 STARLINK-4699,1 53716U 22107S   23357.92208379  .00000008  00000-0  18627-4 0  9990,2 53716  53.2179 275.5275 0001491  78.4675 281.6485 15.08832329 72617,6917.904,95.438,540.8,538.737,0.0
53716.0,STARLINK-4699,PAYLOAD,2023-12-24 01:18:33,15.08840157,0.000161,53.2183,274.9288,94.2383,265.8793,3.379e-05,2.5e-06,0.0,0 STARLINK-4699,1 53716U 22107S   23358.05455749  .00000250  00000-0  33790-4 0  9997,2 53716  53.2183 274.9288 0001610  94.2383 265.8793 15.08840157 72180,6917.88,95.438,540.859,538.631,0.0
53716.0,STARLINK-4699,PAYLOAD,2023-12-24 04:29:19,15.08844467,0.0001493,53.2175,274.329,104.2814,255.8344,7.4563e-05,8.99e-06,0.0,0 STARLINK-4699,1 53716U 22107S   23358.18703279  .00000899  00000-0  74563-4 0  9997,2 53716  53.2175 274.3290 0001493 104.2814 255.8344 15.08844467 72659,6917.867,95.437,540.765,538.699,0.0
53716.0,STARLINK-4699,PAYLOAD,2023-12-24 21:58:34,15.08843314,0.0001532,53.2171,271.0567,116.0222,244.0928,1.9402e-05,2.1e-07,0.0,0 STARLINK-4699,1 53716U 22107S   23358.91567727  .00000021  00000-0  19402-4 0  9992,2 53716  53.2171 271.0567 0001532 116.0222 244.0928 15.08843314 72764,6917.87,95.437,540.795,538.675,0.0
53716.0,STARLINK-4699,PAYLOAD,2023-12-25 01:09:19,15.08859077,0.0001339,53.2171,270.4643,107.6673,252.4466,0.00013911,1.928e-05,0.0,0 STARLINK-4699,1 53716U 22107S   23359.04814402  .00001928  00000-0  13911-3 0  9997,2 53716  53.2171 270.4643 0001339 107.6673 252.4466 15.08859077 72339,6917.822,95.436,540.613,538.761,0.0
53716.0,STARLINK-4699,PAYLOAD,2023-12-25 04:20:05,15.08859835,0.0001313,53.2169,269.8692,108.6294,251.4841,0.00014667,2.048e-05,0.0,0 STARLINK-4699,1 53716U 22107S   23359.18062212  .00002048  00000-0  14667-3 0  9999,2 53716  53.2169 269.8692 0001313 108.6294 251.4841 15.08859835 72804,6917.82,95.436,540.593,538.776,0.0
53716.0,STARLINK-4699,PAYLOAD,2023-12-25 18:38:35,15.08838744,0.0001658,53.217,267.1845,121.9354,238.1799,-1.9651e-05,-6.01e-06,0.0,0 STARLINK-4699,1 53716U 22107S   23359.77680226 -.00000601  00000-0 -19651-4 0  9999,2 53716  53.2170 267.1845 0001658 121.9354 238.1799 15.08838744 72444,6917.884,95.438,540.896,538.602,0.0
53716.0,STARLINK-4699,PAYLOAD,2023-12-25 21:49:22,15.08835129,0.000181,53.2161,266.5943,114.0521,246.0661,3.6355e-06,-2.3e-06,0.0,0 STARLINK-4699,1 53716U 22107S   23359.90928396 -.00000230  00000-0  36355-5 0  9995,2 53716  53.2161 266.5943 0001810 114.0521 246.0661 15.08835129 72917,6917.895,95.438,541.012,538.508,0.0
53716.0,STARLINK-4699,PAYLOAD,2023-12-26 04:10:54,15.08835859,0.000147,53.2171,265.407,103.1744,256.9412,1.2032e-05,-9.6e-07,0.0,0 STARLINK-4699,1 53716U 22107S   23360.17424492 -.00000096  00000-0  12032-4 0  9999,2 53716  53.2171 265.4070 0001470 103.1744 256.9412 15.08835859 72953,6917.893,95.438,540.775,538.741,0.0
53716.0,STARLINK-4699,PAYLOAD,2023-12-26 21:40:09,15.08845455,0.0001345,53.2168,262.1367,96.9026,263.2119,-4.4182e-05,-9.91e-06,0.0,0 STARLINK-4699,1 53716U 22107S   23360.90288273 -.00000991  00000-0 -44182-4 0  9991,2 53716  53.2168 262.1367 0001345  96.9026 263.2119 15.08845455 73066,6917.864,95.437,540.659,538.798,0.0
